SENTINEL-6              
1 46984U 20086A   24028.69495901 -.00000050  00000+0  49576-4 0  9996
2 46984  66.0414 143.0742 0007752 270.1896  89.8231 12.80930259148956
